IRIDIUM 33              
1 24946U 97051C   26063.00839241  .00000417  00000+0  13940-3 0  9992
2 24946  86.3871  34.0826 0006420 323.0447  37.0306 14.35097279490007
IRIDIUM 33 DEB          
1 33773U 97051L   26062.82763245  .00001533  00000+0  44792-3 0  9998
2 33773  86.4026  26.2055 0008943 241.4219 118.6083 14.43463136895170
IRIDIUM 33 DEB          
1 33775U 97051N   26062.85306792  .00002103  00000+0  63863-3 0  9997
2 33775  86.3667  14.9099 0010789 255.6756 165.2710 14.41735281893093
IRIDIUM 33 DEB          
1 33776U 97051P   26062.44808571  .00001102  00000+0  35497-3 0  9995
2 33776  86.4014  46.8498 0012512 298.0527 181.0750 14.38391872892427
IRIDIUM 33 DEB          
1 33777U 97051Q   26063.13810839  .00004518  00000+0  10160-2 0  9996
2 33777  86.3834 359.7758 0007011   5.2025 354.9255 14.56286737897183
IRIDIUM 33 DEB          
1 33850U 97051T   26062.81725810  .00001996  00000+0  59698-3 0  9993
2 33850  86.3467 355.3168 0008870 265.7876 156.4595 14.42465770893218
IRIDIUM 33 DEB          
1 33853U 97051W   26063.16907248  .00003346  00000+0  18853-2 0  9990
2 33853  86.0009 314.1091 0210665 347.0831 137.4326 13.99555495864843
IRIDIUM 33 DEB          
1 33860U 97051AD  26062.83643574  .00012222  00000+0  20811-2 0  9990
2 33860  86.3876 351.3048 0011672  63.1475 355.0796 14.68930866899122
IRIDIUM 33 DEB          
1 33862U 97051AF  26062.83168173  .00016501  00000+0  25914-2 0  9992
2 33862  86.4132   1.7116 0050083 143.0001 270.6948 14.71658838900151
IRIDIUM 33 DEB          
1 33866U 97051AK  26062.51662007  .00003673  00000+0  14454-2 0  9999
2 33866  86.2980  58.8313 0110869 262.7567 224.4160 14.25693826879615
IRIDIUM 33 DEB          
1 33870U 97051AP  26062.84937296  .00004039  00000+0  11183-2 0  9998
2 33870  86.3770  23.4661 0018250 275.7746 113.0232 14.46358523893092
IRIDIUM 33 DEB          
1 33881U 97051BA  26063.06501332  .00022349  00000+0  46739-2 0  9992
2 33881  86.3812  71.3195 0052850 261.8171 162.0565 14.58818423886859
IRIDIUM 33 DEB          
1 33884U 97051BD  26062.72293079  .00020038  00000+0  26342-2 0  9994
2 33884  86.3726 333.2074 0013859  34.8849 347.6457 14.80052102900440
IRIDIUM 33 DEB          
1 33886U 97051BF  26062.84331951  .00000856  00000+0  28682-3 0  9997
2 33886  86.3835  33.0660 0013658 350.6492  74.7329 14.36159820892160
IRIDIUM 33 DEB          
1 33887U 97051BG  26063.15634389  .00000605  00000+0  19647-3 0  9997
2 33887  86.3084 328.3289 0005785 355.2187 164.7733 14.37318641893347
IRIDIUM 33 DEB          
1 33953U 97051BN  26062.35303233  .00006486  00000+0  14578-2 0  9993
2 33953  86.3879  18.7559 0015233 178.0092 335.1570 14.56309544894761
