[{"OBJECT_NAME":"IRIDIUM 33","OBJECT_ID":"1997-051C","EPOCH":"2026-03-04T00:12:05.104224","MEAN_MOTION":14.35097279,"ECCENTRICITY":0.000642,"INCLINATION":86.3871,"RA_OF_ASC_NODE":34.0826,"ARG_OF_PERICENTER":323.0447,"MEAN_ANOMALY":37.0306,"EPHEMERIS_TYPE":0,"CLASSIFICATION_TYPE":"U","NORAD_CAT_ID":24946,"ELEMENT_SET_NO":999,"REV_AT_EPOCH":49000,"BSTAR":0.0001394,"MEAN_MOTION_DOT":4.17e-6,"MEAN_MOTION_DDOT":0},{"OBJECT_NAME":"IRIDIUM 33 DEB","OBJECT_ID":"1997-051L","EPOCH":"2026-03-03T19:51:47.443680","MEAN_MOTION":14.43463136,"ECCENTRICITY":0.00089434,"INCLINATION":86.4026,"RA_OF_ASC_NODE":26.2055,"ARG_OF_PERICENTER":241.4219,"MEAN_ANOMALY":118.6083,"EPHEMERIS_TYPE":0,"CLASSIFICATION_TYPE":"U","NORAD_CAT_ID":33773,"ELEMENT_SET_NO":999,"REV_AT_EPOCH":89517,"BSTAR":0.00044791656,"MEAN_MOTION_DOT":1.533e-5,"MEAN_MOTION_DDOT":0},{"OBJECT_NAME":"IRIDIUM 33 DEB","OBJECT_ID":"1997-051N","EPOCH":"2026-03-03T20:28:25.068288","MEAN_MOTION":14.41735281,"ECCENTRICITY":0.0010789,"INCLINATION":86.3667,"RA_OF_ASC_NODE":14.9099,"ARG_OF_PERICENTER":255.6756,"MEAN_ANOMALY":165.271,"EPHEMERIS_TYPE":0,"CLASSIFICATION_TYPE":"U","NORAD_CAT_ID":33775,"ELEMENT_SET_NO":999,"REV_AT_EPOCH":89309,"BSTAR":0.00063863,"MEAN_MOTION_DOT":2.103e-5,"MEAN_MOTION_DDOT":0},{"OBJECT_NAME":"IRIDIUM 33 DEB","OBJECT_ID":"1997-051P","EPOCH":"2026-03-03T10:45:14.605344","MEAN_MOTION":14.38391872,"ECCENTRICITY":0.00125127,"INCLINATION":86.4014,"RA_OF_ASC_NODE":46.8498,"ARG_OF_PERICENTER":298.0527,"MEAN_ANOMALY":181.075,"EPHEMERIS_TYPE":0,"CLASSIFICATION_TYPE":"U","NORAD_CAT_ID":33776,"ELEMENT_SET_NO":999,"REV_AT_EPOCH":89242,"BSTAR":0.00035496764,"MEAN_MOTION_DOT":1.102e-5,"MEAN_MOTION_DDOT":0},{"OBJECT_NAME":"IRIDIUM 33 DEB","OBJECT_ID":"1997-051Q","EPOCH":"2026-03-04T03:18:52.564896","MEAN_MOTION":14.56286737,"ECCENTRICITY":0.0007011,"INCLINATION":86.3834,"RA_OF_ASC_NODE":359.7758,"ARG_OF_PERICENTER":5.2025,"MEAN_ANOMALY":354.9255,"EPHEMERIS_TYPE":0,"CLASSIFICATION_TYPE":"U","NORAD_CAT_ID":33777,"ELEMENT_SET_NO":999,"REV_AT_EPOCH":89718,"BSTAR":0.001016,"MEAN_MOTION_DOT":4.518e-5,"MEAN_MOTION_DDOT":0},{"OBJECT_NAME":"IRIDIUM 33 DEB","OBJECT_ID":"1997-051T","EPOCH":"2026-03-03T19:36:51.099840","MEAN_MOTION":14.4246577,"ECCENTRICITY":0.000887,"INCLINATION":86.3467,"RA_OF_ASC_NODE":355.3168,"ARG_OF_PERICENTER":265.7876,"MEAN_ANOMALY":156.4595,"EPHEMERIS_TYPE":0,"CLASSIFICATION_TYPE":"U","NORAD_CAT_ID":33850,"ELEMENT_SET_NO":999,"REV_AT_EPOCH":89321,"BSTAR":0.00059698,"MEAN_MOTION_DOT":1.996e-5,"MEAN_MOTION_DDOT":0},{"OBJECT_NAME":"IRIDIUM 33 DEB","OBJECT_ID":"1997-051W","EPOCH":"2026-03-04T04:03:27.862272","MEAN_MOTION":13.99555495,"ECCENTRICITY":0.0210665,"INCLINATION":86.0009,"RA_OF_ASC_NODE":314.1091,"ARG_OF_PERICENTER":347.0831,"MEAN_ANOMALY":137.4326,"EPHEMERIS_TYPE":0,"CLASSIFICATION_TYPE":"U","NORAD_CAT_ID":33853,"ELEMENT_SET_NO":999,"REV_AT_EPOCH":86484,"BSTAR":0.0018853,"MEAN_MOTION_DOT":3.346e-5,"MEAN_MOTION_DDOT":0},{"OBJECT_NAME":"IRIDIUM 33 DEB","OBJECT_ID":"1997-051AD","EPOCH":"2026-03-03T20:04:28.047936","MEAN_MOTION":14.68930866,"ECCENTRICITY":0.0011672,"INCLINATION":86.3876,"RA_OF_ASC_NODE":351.3048,"ARG_OF_PERICENTER":63.1475,"MEAN_ANOMALY":355.0796,"EPHEMERIS_TYPE":0,"CLASSIFICATION_TYPE":"U","NORAD_CAT_ID":33860,"ELEMENT_SET_NO":999,"REV_AT_EPOCH":89912,"BSTAR":0.0020811,"MEAN_MOTION_DOT":0.00012222,"MEAN_MOTION_DDOT":0},{"OBJECT_NAME":"IRIDIUM 33 DEB","OBJECT_ID":"1997-051AF","EPOCH":"2026-03-03T19:57:37.301472","MEAN_MOTION":14.71658838,"ECCENTRICITY":0.0050083,"INCLINATION":86.4132,"RA_OF_ASC_NODE":1.7116,"ARG_OF_PERICENTER":143.0001,"MEAN_ANOMALY":270.6948,"EPHEMERIS_TYPE":0,"CLASSIFICATION_TYPE":"U","NORAD_CAT_ID":33862,"ELEMENT_SET_NO":999,"REV_AT_EPOCH":90015,"BSTAR":0.0025914,"MEAN_MOTION_DOT":0.00016501,"MEAN_MOTION_DDOT":0},{"OBJECT_NAME":"IRIDIUM 33 DEB","OBJECT_ID":"1997-051AK","EPOCH":"2026-03-03T12:23:55.974048","MEAN_MOTION":14.25693826,"ECCENTRICITY":0.01108694,"INCLINATION":86.298,"RA_OF_ASC_NODE":58.8313,"ARG_OF_PERICENTER":262.7567,"MEAN_ANOMALY":224.416,"EPHEMERIS_TYPE":0,"CLASSIFICATION_TYPE":"U","NORAD_CAT_ID":33866,"ELEMENT_SET_NO":999,"REV_AT_EPOCH":87961,"BSTAR":0.0014454251,"MEAN_MOTION_DOT":3.673e-5,"MEAN_MOTION_DDOT":0},{"OBJECT_NAME":"IRIDIUM 33 DEB","OBJECT_ID":"1997-051AP","EPOCH":"2026-03-03T20:23:05.823744","MEAN_MOTION":14.46358523,"ECCENTRICITY":0.00182509,"INCLINATION":86.377,"RA_OF_ASC_NODE":23.4661,"ARG_OF_PERICENTER":275.7746,"MEAN_ANOMALY":113.0232,"EPHEMERIS_TYPE":0,"CLASSIFICATION_TYPE":"U","NORAD_CAT_ID":33870,"ELEMENT_SET_NO":999,"REV_AT_EPOCH":89309,"BSTAR":0.0011182876,"MEAN_MOTION_DOT":4.039e-5,"MEAN_MOTION_DDOT":0},{"OBJECT_NAME":"IRIDIUM 33 DEB","OBJECT_ID":"1997-051BA","EPOCH":"2026-03-04T01:33:37.150848","MEAN_MOTION":14.58818423,"ECCENTRICITY":0.005285,"INCLINATION":86.3812,"RA_OF_ASC_NODE":71.3195,"ARG_OF_PERICENTER":261.8171,"MEAN_ANOMALY":162.0565,"EPHEMERIS_TYPE":0,"CLASSIFICATION_TYPE":"U","NORAD_CAT_ID":33881,"ELEMENT_SET_NO":999,"REV_AT_EPOCH":88685,"BSTAR":0.0046739,"MEAN_MOTION_DOT":0.00022349,"MEAN_MOTION_DDOT":0},{"OBJECT_NAME":"IRIDIUM 33 DEB","OBJECT_ID":"1997-051BD","EPOCH":"2026-03-03T17:21:01.220256","MEAN_MOTION":14.80052102,"ECCENTRICITY":0.00138594,"INCLINATION":86.3726,"RA_OF_ASC_NODE":333.2074,"ARG_OF_PERICENTER":34.8849,"MEAN_ANOMALY":347.6457,"EPHEMERIS_TYPE":0,"CLASSIFICATION_TYPE":"U","NORAD_CAT_ID":33884,"ELEMENT_SET_NO":999,"REV_AT_EPOCH":90044,"BSTAR":0.0026342416,"MEAN_MOTION_DOT":0.00020038,"MEAN_MOTION_DDOT":0},{"OBJECT_NAME":"IRIDIUM 33 DEB","OBJECT_ID":"1997-051BF","EPOCH":"2026-03-03T20:14:22.805664","MEAN_MOTION":14.3615982,"ECCENTRICITY":0.0013658,"INCLINATION":86.3835,"RA_OF_ASC_NODE":33.066,"ARG_OF_PERICENTER":350.6492,"MEAN_ANOMALY":74.7329,"EPHEMERIS_TYPE":0,"CLASSIFICATION_TYPE":"U","NORAD_CAT_ID":33886,"ELEMENT_SET_NO":999,"REV_AT_EPOCH":89216,"BSTAR":0.00028682,"MEAN_MOTION_DOT":8.56e-6,"MEAN_MOTION_DDOT":0},{"OBJECT_NAME":"IRIDIUM 33 DEB","OBJECT_ID":"1997-051BG","EPOCH":"2026-03-04T03:45:08.112096","MEAN_MOTION":14.37318641,"ECCENTRICITY":0.0005785,"INCLINATION":86.3084,"RA_OF_ASC_NODE":328.3289,"ARG_OF_PERICENTER":355.2187,"MEAN_ANOMALY":164.7733,"EPHEMERIS_TYPE":0,"CLASSIFICATION_TYPE":"U","NORAD_CAT_ID":33887,"ELEMENT_SET_NO":999,"REV_AT_EPOCH":89334,"BSTAR":0.00019647,"MEAN_MOTION_DOT":6.05e-6,"MEAN_MOTION_DDOT":0},{"OBJECT_NAME":"IRIDIUM 33 DEB","OBJECT_ID":"1997-051BN","EPOCH":"2026-03-03T08:28:21.993312","MEAN_MOTION":14.56309544,"ECCENTRICITY":0.0015233,"INCLINATION":86.3879,"RA_OF_ASC_NODE":18.7559,"ARG_OF_PERICENTER":178.0092,"MEAN_ANOMALY":335.157,"EPHEMERIS_TYPE":0,"CLASSIFICATION_TYPE":"U","NORAD_CAT_ID":33953,"ELEMENT_SET_NO":999,"REV_AT_EPOCH":89476,"BSTAR":0.0014577652,"MEAN_MOTION_DOT":6.486e-5,"MEAN_MOTION_DDOT":0}]
